SUOMI NPP
1 37849U 11061A   26104.83227786  .00000032  00000+0  36246-4 0  9995
2 37849  98.7913  46.1562 0002445 124.1061 236.0347 14.19503440749459
NOAA 20 (JPSS-1)
1 43013U 17073A   26104.84620072  .00000022  00000+0  31391-4 0  9995
2 43013  98.7733  44.8836 0002146  88.4969 271.6453 14.19545382435484
NOAA 21 (JPSS-2)
1 54234U 22150A   26104.81001580  .00000012  00000+0  26686-4 0  9998
2 54234  98.7596  44.6716 0002341  43.1603 316.9756 14.19561527177552
NOAA 18
1 28654U 05018A   26104.84941767  .00000013  00000+0  29886-4 0  9998
2 28654  98.8117 185.4424 0013680 335.0405  25.0105 14.13718058 77361
NOAA 19
1 33591U 09005A   26104.83706911  .00000019  00000+0  33969-4 0  9996
2 33591  98.9548 175.6574 0013359 205.4490 154.6026 14.13463855885539
