[{"OBJECT_NAME":"NOAA 18","OBJECT_ID":"2005-018A","EPOCH":"2026-04-14T20:23:09.686688","MEAN_MOTION":14.13718058,"ECCENTRICITY":0.001368,"INCLINATION":98.8117,"RA_OF_ASC_NODE":185.4424,"ARG_OF_PERICENTER":335.0405,"MEAN_ANOMALY":25.0105,"EPHEMERIS_TYPE":0,"CLASSIFICATION_TYPE":"U","NORAD_CAT_ID":28654,"ELEMENT_SET_NO":999,"REV_AT_EPOCH":7736,"BSTAR":2.9886e-5,"MEAN_MOTION_DOT":1.3e-7,"MEAN_MOTION_DDOT":0},{"OBJECT_NAME":"NOAA 19","OBJECT_ID":"2009-005A","EPOCH":"2026-04-14T20:05:22.771104","MEAN_MOTION":14.13463855,"ECCENTRICITY":0.0013359,"INCLINATION":98.9548,"RA_OF_ASC_NODE":175.6574,"ARG_OF_PERICENTER":205.449,"MEAN_ANOMALY":154.6026,"EPHEMERIS_TYPE":0,"CLASSIFICATION_TYPE":"U","NORAD_CAT_ID":33591,"ELEMENT_SET_NO":999,"REV_AT_EPOCH":88553,"BSTAR":3.3969e-5,"MEAN_MOTION_DOT":1.9e-7,"MEAN_MOTION_DDOT":0},{"OBJECT_NAME":"SUOMI NPP","OBJECT_ID":"2011-061A","EPOCH":"2026-04-14T19:58:28.807104","MEAN_MOTION":14.1950344,"ECCENTRICITY":0.0002445,"INCLINATION":98.7913,"RA_OF_ASC_NODE":46.1562,"ARG_OF_PERICENTER":124.1061,"MEAN_ANOMALY":236.0347,"EPHEMERIS_TYPE":0,"CLASSIFICATION_TYPE":"U","NORAD_CAT_ID":37849,"ELEMENT_SET_NO":999,"REV_AT_EPOCH":74945,"BSTAR":3.6246e-5,"MEAN_MOTION_DOT":3.2e-7,"MEAN_MOTION_DDOT":0},{"OBJECT_NAME":"NOAA 20 (JPSS-1)","OBJECT_ID":"2017-073A","EPOCH":"2026-04-14T20:18:31.742208","MEAN_MOTION":14.19545382,"ECCENTRICITY":0.0002146,"INCLINATION":98.7733,"RA_OF_ASC_NODE":44.8836,"ARG_OF_PERICENTER":88.4969,"MEAN_ANOMALY":271.6453,"EPHEMERIS_TYPE":0,"CLASSIFICATION_TYPE":"U","NORAD_CAT_ID":43013,"ELEMENT_SET_NO":999,"REV_AT_EPOCH":43548,"BSTAR":3.1391e-5,"MEAN_MOTION_DOT":2.2e-7,"MEAN_MOTION_DDOT":0},{"OBJECT_NAME":"NOAA 21 (JPSS-2)","OBJECT_ID":"2022-150A","EPOCH":"2026-04-14T19:26:25.365120","MEAN_MOTION":14.19561527,"ECCENTRICITY":0.0002341,"INCLINATION":98.7596,"RA_OF_ASC_NODE":44.6716,"ARG_OF_PERICENTER":43.1603,"MEAN_ANOMALY":316.9756,"EPHEMERIS_TYPE":0,"CLASSIFICATION_TYPE":"U","NORAD_CAT_ID":54234,"ELEMENT_SET_NO":999,"REV_AT_EPOCH":17755,"BSTAR":2.6686e-5,"MEAN_MOTION_DOT":1.2e-7,"MEAN_MOTION_DDOT":0}]
